HIMAWARI-8              
1 40267U 14060A   24052.57104573 -.00000285  00000+0  00000+0 0  9999
2 40267   0.0438 234.2968 0001481 104.5901 158.2816  1.00270816 34276
